[
    {
        "Altitude(m)": 568901.9903883876,
        "Argument of Periapsis(deg)": 0.0,
        "Eccentricity": 0.0,
        "Inclination(deg)": 97.0,
        "Latitude(deg)": -12.515668829713714,
        "Longitude(deg)": 21.58405334532946,
        "Mean Anomaly(deg)": -12.413799999999977,
        "RAAN(deg)": 120.0,
        "Satellite Name": "Starlink Shell 3 1872",
        "Satellite Number": 1872,
        "Semi-Major Axis(m)": 6938478.169268562,
        "Time(s)": 0
    },
    {
        "Altitude(m)": 568741.403154855,
        "Argument of Periapsis(deg)": -0.0003965466804030246,
        "Eccentricity": 0.0,
        "Inclination(deg)": 97.0,
        "Latitude(deg)": -11.892131663122733,
        "Longitude(deg)": 21.462642841352793,
        "Mean Anomaly(deg)": -11.788323802294869,
        "RAAN(deg)": 120.000104334274,
        "Satellite Name": "Starlink Shell 3 1872",
        "Satellite Number": 1872,
        "Semi-Major Axis(m)": 6938478.169268562,
        "Time(s)": 10
    },
    {
        "Altitude(m)": 568584.5525058488,
        "Argument of Periapsis(deg)": -0.0007930933608060492,
        "Eccentricity": 0.0,
        "Inclination(deg)": 97.0,
        "Latitude(deg)": -11.268522998767084,
        "Longitude(deg)": 21.341590764729837,
        "Mean Anomaly(deg)": -11.162847604589862,
        "RAAN(deg)": 120.00020866854801,
        "Satellite Name": "Starlink Shell 3 1872",
        "Satellite Number": 1872,
        "Semi-Major Axis(m)": 6938478.169268562,
        "Time(s)": 20
    },
    {
        "Altitude(m)": 568431.485571787,
        "Argument of Periapsis(deg)": -0.001189640041209074,
        "Eccentricity": 0.0,
        "Inclination(deg)": 97.0,
        "Latitude(deg)": -10.64484581687238,
        "Longitude(deg)": 21.2208760790673,
        "Mean Anomaly(deg)": -10.537371406884867,
        "RAAN(deg)": 120.00031300282204,
        "Satellite Name": "Starlink Shell 3 1872",
        "Satellite Number": 1872,
        "Semi-Major Axis(m)": 6938478.169268562,
        "Time(s)": 30
    },
    {
        "Altitude(m)": 568282.2476030829,
        "Argument of Periapsis(deg)": -0.0015861867216120985,
        "Eccentricity": 0.0,
        "Inclination(deg)": 97.0,
        "Latitude(deg)": -10.021103095991597,
        "Longitude(deg)": 21.100478583570087,
        "Mean Anomaly(deg)": -9.911895209179757,
        "RAAN(deg)": 120.00041733709604,
        "Satellite Name": "Starlink Shell 3 1872",
        "Satellite Number": 1872,
        "Semi-Major Axis(m)": 6938478.169268562,
        "Time(s)": 40
    },
    {
        "Altitude(m)": 568136.8819505487,
        "Argument of Periapsis(deg)": -0.0019827334020151234,
        "Eccentricity": 0.0,
        "Inclination(deg)": 97.0,
        "Latitude(deg)": -9.397297813504782,
        "Longitude(deg)": 20.98037788242273,
        "Mean Anomaly(deg)": -9.286419011474749,
        "RAAN(deg)": 120.00052167137005,
        "Satellite Name": "Starlink Shell 3 1872",
        "Satellite Number": 1872,
        "Semi-Major Axis(m)": 6938478.169268562,
        "Time(s)": 50
    },
    {
        "Altitude(m)": 567995.4300468032,
        "Argument of Periapsis(deg)": -0.002379280082418148,
        "Eccentricity": 0.0,
        "Inclination(deg)": 97.0,
        "Latitude(deg)": -8.773432946065459,
        "Longitude(deg)": 20.86055386769022,
        "Mean Anomaly(deg)": -8.660942813769717,
        "RAAN(deg)": 120.00062600564404,
        "Satellite Name": "Starlink Shell 3 1872",
        "Satellite Number": 1872,
        "Semi-Major Axis(m)": 6938478.169268562,
        "Time(s)": 60
    },
    {
        "Altitude(m)": 567857.9313885964,
        "Argument of Periapsis(deg)": -0.002775826762821173,
        "Eccentricity": 0.0,
        "Inclination(deg)": 97.0,
        "Latitude(deg)": -8.149511470001885,
        "Longitude(deg)": 20.740987202816665,
        "Mean Anomaly(deg)": -8.03546661606462,
        "RAAN(deg)": 120.00073033991804,
        "Satellite Name": "Starlink Shell 3 1872",
        "Satellite Number": 1872,
        "Semi-Major Axis(m)": 6938478.169268562,
        "Time(s)": 70
    },
    {
        "Altitude(m)": 567724.4235201315,
        "Argument of Periapsis(deg)": -0.003172373443224197,
        "Eccentricity": 0.0,
        "Inclination(deg)": 97.0,
        "Latitude(deg)": -7.525536361678047,
        "Longitude(deg)": 20.62165829380157,
        "Mean Anomaly(deg)": -7.409990418359612,
        "RAAN(deg)": 120.00083467419205,
        "Satellite Name": "Starlink Shell 3 1872",
        "Satellite Number": 1872,
        "Semi-Major Axis(m)": 6938478.169268562,
        "Time(s)": 80
    },
    {
        "Altitude(m)": 567594.9420173853,
        "Argument of Periapsis(deg)": -0.0035689201236272223,
        "Eccentricity": 0.0,
        "Inclination(deg)": 97.0,
        "Latitude(deg)": -6.901510597811665,
        "Longitude(deg)": 20.50254777375372,
        "Mean Anomaly(deg)": -6.784514220654502,
        "RAAN(deg)": 120.00093900846606,
        "Satellite Name": "Starlink Shell 3 1872",
        "Satellite Number": 1872,
        "Semi-Major Axis(m)": 6938478.169268562,
        "Time(s)": 90
    },
    {
        "Altitude(m)": 567469.5204733748,
        "Argument of Periapsis(deg)": -0.003965466804030247,
        "Eccentricity": 0.0,
        "Inclination(deg)": 97.0,
        "Latitude(deg)": -6.277437155757335,
        "Longitude(deg)": 20.383636987909,
        "Mean Anomaly(deg)": -6.159038022949495,
        "RAAN(deg)": 120.00104334274008,
        "Satellite Name": "Starlink Shell 3 1872",
        "Satellite Number": 1872,
        "Semi-Major Axis(m)": 6938478.169268562,
        "Time(s)": 100
    },
    {
        "Altitude(m)": 567348.190484489,
        "Argument of Periapsis(deg)": -0.004362013484433271,
        "Eccentricity": 0.0,
        "Inclination(deg)": 97.0,
        "Latitude(deg)": -5.653319013757701,
        "Longitude(deg)": 20.264906966194033,
        "Mean Anomaly(deg)": -5.5335618252445,
        "RAAN(deg)": 120.0011476770141,
        "Satellite Name": "Starlink Shell 3 1872",
        "Satellite Number": 1872,
        "Semi-Major Axis(m)": 6938478.169268562,
        "Time(s)": 110
    },
    {
        "Altitude(m)": 567230.9816377666,
        "Argument of Periapsis(deg)": -0.004758560164836296,
        "Eccentricity": 0.0,
        "Inclination(deg)": 97.0,
        "Latitude(deg)": -5.029159151162757,
        "Longitude(deg)": 20.14633890904461,
        "Mean Anomaly(deg)": -4.908085627539479,
        "RAAN(deg)": 120.0012520112881,
        "Satellite Name": "Starlink Shell 3 1872",
        "Satellite Number": 1872,
        "Semi-Major Axis(m)": 6938478.169268562,
        "Time(s)": 120
    },
    {
        "Altitude(m)": 567117.9214992389,
        "Argument of Periapsis(deg)": -0.005155106845239321,
        "Eccentricity": 0.0,
        "Inclination(deg)": 97.0,
        "Latitude(deg)": -4.404960548621299,
        "Longitude(deg)": 20.02791467356498,
        "Mean Anomaly(deg)": -4.282609429834382,
        "RAAN(deg)": 120.00135634556212,
        "Satellite Name": "Starlink Shell 3 1872",
        "Satellite Number": 1872,
        "Semi-Major Axis(m)": 6938478.169268562,
        "Time(s)": 130
    },
    {
        "Altitude(m)": 567009.0356032762,
        "Argument of Periapsis(deg)": -0.005551653525642346,
        "Eccentricity": 0.0,
        "Inclination(deg)": 97.0,
        "Latitude(deg)": -3.7807261882512937,
        "Longitude(deg)": 19.90961574711849,
        "Mean Anomaly(deg)": -3.6571332321293872,
        "RAAN(deg)": 120.00146067983611,
        "Satellite Name": "Starlink Shell 3 1872",
        "Satellite Number": 1872,
        "Semi-Major Axis(m)": 6938478.169268562,
        "Time(s)": 140
    },
    {
        "Altitude(m)": 566904.3474429657,
        "Argument of Periapsis(deg)": -0.005948200206045371,
        "Eccentricity": 0.0,
        "Inclination(deg)": 97.0,
        "Latitude(deg)": -3.1564590537847512,
        "Longitude(deg)": 19.791423734058117,
        "Mean Anomaly(deg)": -3.031657034424265,
        "RAAN(deg)": 120.00156501411014,
        "Satellite Name": "Starlink Shell 3 1872",
        "Satellite Number": 1872,
        "Semi-Major Axis(m)": 6938478.169268562,
        "Time(s)": 150
    },
    {
        "Altitude(m)": 566803.8784615255,
        "Argument of Periapsis(deg)": -0.006344746886448394,
        "Eccentricity": 0.0,
        "Inclination(deg)": 97.0,
        "Latitude(deg)": -2.5321621306952027,
        "Longitude(deg)": 19.673320842689048,
        "Mean Anomaly(deg)": -2.4061808367192703,
        "RAAN(deg)": 120.00166934838414,
        "Satellite Name": "Starlink Shell 3 1872",
        "Satellite Number": 1872,
        "Semi-Major Axis(m)": 6938478.169268562,
        "Time(s)": 160
    },
    {
        "Altitude(m)": 566707.648044766,
        "Argument of Periapsis(deg)": -0.00674129356685142,
        "Eccentricity": 0.0,
        "Inclination(deg)": 97.0,
        "Latitude(deg)": -1.907838406310233,
        "Longitude(deg)": 19.555288859554135,
        "Mean Anomaly(deg)": -1.780704639014275,
        "RAAN(deg)": 120.00177368265815,
        "Satellite Name": "Starlink Shell 3 1872",
        "Satellite Number": 1872,
        "Semi-Major Axis(m)": 6938478.169268562,
        "Time(s)": 170
    },
    {
        "Altitude(m)": 566615.6735145953,
        "Argument of Periapsis(deg)": -0.007137840247254445,
        "Eccentricity": 0.0,
        "Inclination(deg)": 97.0,
        "Latitude(deg)": -1.283490869908716,
        "Longitude(deg)": 19.437309636755025,
        "Mean Anomaly(deg)": -1.1552284413091274,
        "RAAN(deg)": 120.00187801693214,
        "Satellite Name": "Starlink Shell 3 1872",
        "Satellite Number": 1872,
        "Semi-Major Axis(m)": 6938478.169268562,
        "Time(s)": 180
    }
]